IRIDIUM 58
1 25274U 98019C   09333.61563101  .00000015  00000-0 -17048-5 0  5840
2 25274 086.3975 359.4504 0002419 079.8376 280.3093 14.34221384610965
20071231 0.0
20071231 24.0
